GLOBALSTAR M001 [-]     
1 25162U 98008A   24110.49674957 -.00000039  00000+0  44086-3 0  9997
2 25162  52.0007 126.3787 0001585  78.7610  86.5718 12.38181893191228
GLOBALSTAR M004 [-]     
1 25163U 98008B   24110.57822101 -.00000058  00000+0  25506-3 0  9990
2 25163  51.9992 266.4441 0003647  77.9150 357.4492 12.63355542208246
GLOBALSTAR M002 [-]     
1 25164U 98008C   24110.58938366 -.00000066  00000+0  21035-3 0  9995
2 25164  52.0004 222.2969 0001812 103.9446 256.1576 11.61501043134846
GLOBALSTAR M003 [-]     
1 25165U 98008D   24110.57261375  .00000040  00000+0  13836-2 0  9994
2 25165  51.9840 261.7835 0008502 157.8601 279.6783 12.11994140181850
GLOBALSTAR M014 [-]     
1 25306U 98023A   24110.45804993 -.00000055  00000+0  42190-3 0  9997
2 25306  51.9810 154.7590 0000754 285.7815 179.7830 11.65466885141769
GLOBALSTAR M006 [-]     
1 25307U 98023B   24110.45976788 -.00000022  00000+0  10956-2 0  9998
2 25307  51.9922 191.3919 0003675  72.7267  11.6942 11.58160946167730
GLOBALSTAR M015 [-]     
1 25308U 98023C   24110.59634091 -.00000070  00000+0  80056-4 0  9995
2 25308  51.9815 270.1082 0012805  46.6995  31.1314 11.48850411145392
GLOBALSTAR M008 [-]     
1 25309U 98023D   24109.87352674 -.00000088  00000+0  60869-4 0  9998
2 25309  51.9994 348.2182 0002790  16.7157 112.7365 12.36040766185689
